{
  "norad_id": 58709,
  "name": "STARLINK-11076 [DTC]",
  "history": [
    {
      "epoch": "2026-03-28T15:06:22.440096Z",
      "apogee_km": 360.2670506197346,
      "perigee_km": 359.1054498913909,
      "latitude_deg": 4.182679140178737e-06,
      "longitude_deg": 127.89747593581355,
      "height_km": 360.02238588916424,
      "semi_major_axis_km": 6737.823250255563,
      "eccentricity": 8.62e-05,
      "inclination_deg": 53.1598,
      "raan_deg": 180.5381,
      "arg_perigee_deg": 355.4826,
      "mean_anomaly_deg": 4.6184,
      "mean_motion_rev_day": 15.69724153
    }
  ]
}