{"fetched_at":"2026-03-29T16:36:15Z","count":15609,"tles":[{"name":"STARLINK-11076 [DTC]","line1":"1 58709U 24002E   26087.62942639  .00003747  00000+0  35751-4 0  9996","line2":"2 58709  53.1598 180.5381 0000862 355.4826   4.6184 15.69724153129410","category":"Starlink"}]}